NORAD_CAT_ID,OBJECT_NAME,OBJECT_TYPE,EPOCH,MEAN_MOTION,ECCENTRICITY,INCLINATION,RA_OF_ASC_NODE,ARG_OF_PERICENTER,MEAN_ANOMALY,BSTAR,MEAN_MOTION_DOT,MEAN_MOTION_DDOT,TLE_LINE0,TLE_LINE1,TLE_LINE2,SEMIMAJOR_AXIS,PERIOD,APOGEE,PERIGEE,DECAYED
52140.0,STARLINK-3682,PAYLOAD,2023-09-17 03:23:18,15.08844188,0.0001309,53.2167,169.7939,81.074,279.04,0.00019991,2.895e-05,0.0,0 STARLINK-3682,1 52140U 22029BE  23260.14118790  .00002895  00000-0  19991-3 0  9997,2 52140  53.2167 169.7939 0001309  81.0740 279.0400 15.08844188 84387,6917.868,95.437,540.638,538.827,0.0
52140.0,STARLINK-3682,PAYLOAD,2023-09-18 00:03:19,15.08842507,0.000131,53.2165,165.9302,96.8552,263.2589,0.00011051,1.471e-05,0.0,0 STARLINK-3682,1 52140U 22029BE  23261.00230994  .00001471  00000-0  11051-3 0  9992,2 52140  53.2165 165.9302 0001310  96.8552 263.2589 15.08842507 84515,6917.873,95.437,540.644,538.831,0.0
52140.0,STARLINK-3682,PAYLOAD,2023-09-18 23:54:06,15.08851473,0.0001514,53.2166,161.4692,90.6001,269.5165,0.00035703,5.4e-05,0.0,0 STARLINK-3682,1 52140U 22029BE  23261.99590808  .00005400  00000-0  35703-3 0  9999,2 52140  53.2166 161.4692 0001514  90.6001 269.5165 15.08851473 84663,6917.845,95.437,540.758,538.663,0.0
52140.0,STARLINK-3682,PAYLOAD,2023-09-19 03:04:52,15.08859923,0.0001525,53.2161,160.8736,93.6765,266.4401,0.00050829,7.815e-05,0.0,0 STARLINK-3682,1 52140U 22029BE  23262.12838384  .00007815  00000-0  50829-3 0  9997,2 52140  53.2161 160.8736 0001525  93.6765 266.4401 15.08859923 84681,6917.819,95.436,540.739,538.63,0.0
52140.0,STARLINK-3682,PAYLOAD,2023-09-19 23:44:52,15.08859821,0.0001527,53.2163,157.0103,99.7411,260.3754,0.00033034,4.976e-05,0.0,0 STARLINK-3682,1 52140U 22029BE  23262.98949809  .00004976  00000-0  33034-3 0  9990,2 52140  53.2163 157.0103 0001527  99.7411 260.3754 15.08859821 84812,6917.82,95.436,540.741,538.628,0.0
52140.0,STARLINK-3682,PAYLOAD,2023-09-20 02:55:38,15.08862497,0.0001432,53.2158,156.4125,90.6395,269.4762,0.0004056,6.177e-05,0.0,0 STARLINK-3682,1 52140U 22029BE  23263.12197647  .00006177  00000-0  40560-3 0  9999,2 52140  53.2158 156.4125 0001432  90.6395 269.4762 15.08862497 84833,6917.812,95.436,540.667,538.686,0.0
52140.0,STARLINK-3682,PAYLOAD,2023-09-20 22:00:17,15.08823846,0.0001403,53.2161,152.8462,107.7856,252.3289,-0.00037641,-6.271e-05,0.0,0 STARLINK-3682,1 52140U 22029BE  23263.91686992 -.00006271  00000-0 -37641-3 0  9995,2 52140  53.2161 152.8462 0001403 107.7856 252.3289 15.08823846 84954,6917.93,95.439,540.765,538.824,0.0
52140.0,STARLINK-3682,PAYLOAD,2023-09-20 23:35:40,15.08822705,0.0001307,53.2162,152.5495,103.6619,256.4519,-0.0003384,-5.667e-05,0.0,0 STARLINK-3682,1 52140U 22029BE  23263.98311145 -.00005667  00000-0 -33840-3 0  9992,2 52140  53.2162 152.5495 0001307 103.6619 256.4519 15.08822705 84968,6917.933,95.439,540.702,538.894,0.0
52140.0,STARLINK-3682,PAYLOAD,2023-09-21 17:04:55,15.08832045,0.0001031,53.2155,149.2736,114.3335,245.7765,0.00015978,2.255e-05,0.0,0 STARLINK-3682,1 52140U 22029BE  23264.71175654  .00002255  00000-0  15978-3 0  9997,2 52140  53.2155 149.2736 0001031 114.3335 245.7765 15.08832045 85074,6917.905,95.438,540.483,539.056,0.0
52140.0,STARLINK-3682,PAYLOAD,2023-09-21 21:51:05,15.08842438,0.0001194,53.2154,148.3834,63.07,297.0414,0.0007623,0.00011866,0.0,0 STARLINK-3682,1 52140U 22029BE  23264.91047876  .00011866  00000-0  76230-3 0  9999,2 52140  53.2154 148.3834 0001194  63.0700 297.0414 15.08842438 85100,6917.873,95.437,540.564,538.912,0.0
52140.0,STARLINK-3682,PAYLOAD,2023-09-21 23:26:28,15.08848573,0.0001117,53.2157,148.0887,77.3112,282.8005,0.00095596,0.00014962,0.0,0 STARLINK-3682,1 52140U 22029BE  23264.97671785  .00014962  00000-0  95596-3 0  9993,2 52140  53.2157 148.0887 0001117  77.3112 282.8005 15.08848573 85113,6917.854,95.437,540.492,538.946,0.0
52140.0,STARLINK-3682,PAYLOAD,2023-09-22 02:37:14,15.08857832,0.0001122,53.2154,147.492,66.8769,293.2342,0.0011203,0.00017595,0.0,0 STARLINK-3682,1 52140U 22029BE  23265.10919586  .00017595  00000-0  11203-2 0  9990,2 52140  53.2154 147.4920 0001122  66.8769 293.2342 15.08857832 85138,6917.826,95.436,540.467,538.915,0.0
52140.0,STARLINK-3682,PAYLOAD,2023-09-22 21:41:51,15.08863005,0.0001064,53.2152,143.9189,80.219,279.8923,0.0007888,0.00012296,0.0,0 STARLINK-3682,1 52140U 22029BE  23265.90407133  .00012296  00000-0  78880-3 0  9996,2 52140  53.2152 143.9189 0001064  80.2190 279.8923 15.08863005 85254,6917.81,95.436,540.411,538.939,0.0
52140.0,STARLINK-3682,PAYLOAD,2023-09-22 23:17:14,15.08867427,0.0001058,53.2158,143.6275,93.3245,266.7868,0.00098656,0.0001546,0.0,0 STARLINK-3682,1 52140U 22029BE  23265.97031009  .00015460  00000-0  98656-3 0  9997,2 52140  53.2158 143.6275 0001058  93.3245 266.7868 15.08867427 85268,6917.797,95.436,540.393,538.93,0.0
52140.0,STARLINK-3682,PAYLOAD,2023-09-23 15:11:06,15.08838645,0.0001067,53.2151,140.6532,94.8643,265.2471,0.0010747,0.00016857,0.0,0 STARLINK-3682,1 52140U 22029BE  23266.63271439  .00016857  00000-0  10747-2 0  9999,2 52140  53.2151 140.6532 0001067  94.8643 265.2471 15.08838645 85367,6917.885,95.438,540.488,539.011,0.0
52140.0,STARLINK-3682,PAYLOAD,2023-09-24 00:43:25,15.0884694,0.0001153,53.2157,138.8703,89.2188,270.8936,0.00026158,3.878e-05,0.0,0 STARLINK-3682,1 52140U 22029BE  23267.03015240  .00003878  00000-0  26158-3 0  9993,2 52140  53.2157 138.8703 0001153  89.2188 270.8936 15.08846940 85422,6917.859,95.437,540.522,538.927,0.0
52140.0,STARLINK-3682,PAYLOAD,2023-09-24 21:23:26,15.088385,0.0001425,53.2158,135.0039,65.728,294.3861,0.00019501,2.817e-05,0.0,0 STARLINK-3682,1 52140U 22029BE  23267.89127930  .00002817  00000-0  19501-3 0  9993,2 52140  53.2158 135.0039 0001425  65.7280 294.3861 15.08838500 85553,6917.885,95.438,540.736,538.764,0.0
52140.0,STARLINK-3682,PAYLOAD,2023-09-25 00:34:12,15.08842144,0.0001207,53.2153,134.4086,79.7236,280.3892,0.00054066,8.328e-05,0.0,0 STARLINK-3682,1 52140U 22029BE  23268.02375885  .00008328  00000-0  54066-3 0  9991,2 52140  53.2153 134.4086 0001207  79.7236 280.3892 15.08842144 85577,6917.874,95.437,540.574,538.904,0.0
52140.0,STARLINK-3682,PAYLOAD,2023-09-25 08:31:08,15.08851357,0.0001209,53.2154,132.922,85.2287,274.8843,0.0007721,0.00012025,0.0,0 STARLINK-3682,1 52140U 22029BE  23268.35495789  .00012025  00000-0  77210-3 0  9998,2 52140  53.2154 132.9220 0001209  85.2287 274.8843 15.08851357 85627,6917.846,95.437,540.547,538.874,0.0
52140.0,STARLINK-3682,PAYLOAD,2023-09-25 21:14:13,15.08858609,0.0001273,53.2153,130.543,86.7171,273.3967,0.00070673,0.00010983,0.0,0 STARLINK-3682,1 52140U 22029BE  23268.88487384  .00010983  00000-0  70673-3 0  9995,2 52140  53.2153 130.5430 0001273  86.7171 273.3967 15.08858609 85709,6917.824,95.436,540.569,538.808,0.0
52140.0,STARLINK-3682,PAYLOAD,2023-09-25 22:49:36,15.08863688,0.000127,53.2157,130.2457,87.6894,272.4244,0.00087656,0.00013699,0.0,0 STARLINK-3682,1 52140U 22029BE  23268.95111234  .00013699  00000-0  87656-3 0  9997,2 52140  53.2157 130.2457 0001270  87.6894 272.4244 15.08863688 85710,6917.808,95.436,540.552,538.794,0.0
52140.0,STARLINK-3682,PAYLOAD,2023-09-26 17:54:14,15.08835463,0.0001382,53.215,126.6765,67.4823,292.6315,0.00022171,3.242e-05,0.0,0 STARLINK-3682,1 52140U 22029BE  23269.74600167  .00003242  00000-0  22171-3 0  9997,2 52140  53.2150 126.6765 0001382  67.4823 292.6315 15.08835463 85832,6917.894,95.438,540.715,538.803,0.0
52140.0,STARLINK-3682,PAYLOAD,2023-09-26 21:05:00,15.08837331,0.0001333,53.2151,126.082,88.1029,272.0116,0.00013376,1.841e-05,0.0,0 STARLINK-3682,1 52140U 22029BE  23269.87848137  .00001841  00000-0  13376-3 0  9992,2 52140  53.2151 126.0820 0001333  88.1029 272.0116 15.08837331 85852,6917.889,95.438,540.676,538.831,0.0
52140.0,STARLINK-3682,PAYLOAD,2023-09-27 19:20:25,15.08834139,0.0001534,53.2161,121.9191,92.3185,267.7983,0.00017085,2.432e-05,0.0,0 STARLINK-3682,1 52140U 22029BE  23270.80584909  .00002432  00000-0  17085-3 0  9999,2 52140  53.2161 121.9191 0001534  92.3185 267.7983 15.08834139 85992,6917.898,95.438,540.825,538.702,0.0
52140.0,STARLINK-3682,PAYLOAD,2023-09-28 00:06:34,15.08838088,0.0001557,53.2163,121.0249,105.1454,254.971,0.00015512,2.181e-05,0.0,0 STARLINK-3682,1 52140U 22029BE  23271.00456748  .00002181  00000-0  15512-3 0  9995,2 52140  53.2163 121.0249 0001557 105.1454 254.9710 15.08838088 86024,6917.886,95.438,540.828,538.674,0.0
52140.0,STARLINK-3682,PAYLOAD,2023-09-28 20:46:35,15.08849285,0.0001582,53.216,117.1595,100.8648,259.2523,0.00040045,6.093e-05,0.0,0 STARLINK-3682,1 52140U 22029BE  23271.86568555  .00006093  00000-0  40045-3 0  9994,2 52140  53.2160 117.1595 0001582 100.8648 259.2523 15.08849285 86151,6917.852,95.437,540.811,538.623,0.0
52140.0,STARLINK-3682,PAYLOAD,2023-09-28 23:57:21,15.08851407,0.0001581,53.216,116.5648,101.3798,258.7372,0.00040252,6.126e-05,0.0,0 STARLINK-3682,1 52140U 22029BE  23271.99816434  .00006126  00000-0  40252-3 0  9997,2 52140  53.2160 116.5648 0001581 101.3798 258.7372 15.08851407 86171,6917.846,95.437,540.804,538.617,0.0
52140.0,STARLINK-3682,PAYLOAD,2023-09-29 17:26:35,15.08847887,0.0001583,53.2157,113.2928,106.8346,253.282,0.0001303,1.787e-05,0.0,0 STARLINK-3682,1 52140U 22029BE  23272.72680162  .00001787  00000-0  13030-3 0  9998,2 52140  53.2157 113.2928 0001583 106.8346 253.2820 15.08847887 86280,6917.856,95.437,540.816,538.626,0.0
52140.0,STARLINK-3682,PAYLOAD,2023-09-29 22:12:44,15.08852894,0.000145,53.2161,112.3998,100.4064,259.7092,0.00024319,3.586e-05,0.0,0 STARLINK-3682,1 52140U 22029BE  23272.92551934  .00003586  00000-0  24319-3 0  9995,2 52140  53.2161 112.3998 0001450 100.4064 259.7092 15.08852894 86312,6917.841,95.437,540.709,538.703,0.0
52140.0,STARLINK-3682,PAYLOAD,2023-09-30 17:17:22,15.08837699,0.0001429,53.2156,108.8339,92.2919,267.8237,-9.5209e-05,-1.803e-05,0.0,0 STARLINK-3682,1 52140U 22029BE  23273.72040342 -.00001803  00000-0 -95209-4 0  9999,2 52140  53.2156 108.8339 0001429  92.2919 267.8237 15.08837699 86438,6917.887,95.438,540.741,538.764,0.0
